SENTINEL-6              
1 46984U 20086A   24046.57434101 -.00000046  00000+0  63884-4 0  9991
2 46984  66.0408 105.9398 0007839 270.6027  89.4090 12.80930785151126
